{
  "type": "FeatureCollection",
  "features": [
    {
      "type": "Feature",
      "properties": {
        "norad_id": 63772,
        "name": "BIOMASS",
        "group": "resource",
        "lat": -80.2252329332349,
        "lon": -137.10720839588106,
        "alt_km": 677.0740280399777,
        "timestamp": "2025-12-08T08:59:00.430132+00:00",
        "meta_object_name": "BIOMASS",
        "meta_object_id": "2025-090A",
        "meta_epoch": "2025-12-07T18:38:26.290752",
        "meta_mean_motion": 14.67540192,
        "meta_eccentricity": 0.00012291,
        "meta_inclination": 98.0702,
        "meta_ra_of_asc_node": 166.8585,
        "meta_arg_of_pericenter": 76.0167,
        "meta_mean_anomaly": 284.1174,
        "meta_ephemeris_type": 0,
        "meta_classification_type": "U",
        "meta_norad_cat_id": 63772,
        "meta_element_set_no": 999,
        "meta_rev_at_epoch": 3261,
        "meta_bstar": 0.00045739481,
        "meta_mean_motion_dot": 2.547e-05,
        "meta_mean_motion_ddot": 0,
        "tle_line1": "1 63772U 25090A   25341.77669318  .00002547  00000+0  45739-3 0  9991",
        "tle_line2": "2 63772  98.0702 166.8585 0001229  76.0167 284.1174 14.67540192 32611"
      },
      "geometry": {
        "type": "Point",
        "coordinates": [
          -137.10720839588106,
          -80.2252329332349
        ]
      }
    },
    {
      "type": "Feature",
      "properties": {
        "norad_id": 64694,
        "name": "GOSAT-GW (IBUKI GW)",
        "group": "resource",
        "lat": 54.4730993414321,
        "lon": 109.38759812679322,
        "alt_km": 662.943335003406,
        "timestamp": "2025-12-08T08:59:00.430142+00:00",
        "meta_object_name": "GOSAT-GW (IBUKI GW)",
        "meta_object_id": "2025-141A",
        "meta_epoch": "2025-12-07T22:35:57.915456",
        "meta_mean_motion": 14.6756033,
        "meta_eccentricity": 0.00014936,
        "meta_inclination": 98.0422,
        "meta_ra_of_asc_node": 277.5417,
        "meta_arg_of_pericenter": 82.5881,
        "meta_mean_anomaly": 277.5493,
        "meta_ephemeris_type": 0,
        "meta_classification_type": "U",
        "meta_norad_cat_id": 64694,
        "meta_element_set_no": 999,
        "meta_rev_at_epoch": 2379,
        "meta_bstar": 0.00032339834,
        "meta_mean_motion_dot": 1.787e-05,
        "meta_mean_motion_ddot": 0,
        "tle_line1": "1 64694U 25141A   25341.94164254  .00001787  00000+0  32340-3 0  9999",
        "tle_line2": "2 64694  98.0422 277.5417 0001493  82.5881 277.5493 14.67560330 23791"
      },
      "geometry": {
        "type": "Point",
        "coordinates": [
          109.38759812679322,
          54.4730993414321
        ]
      }
    },
    {
      "type": "Feature",
      "properties": {
        "norad_id": 64876,
        "name": "IONOSFERA-M 3",
        "group": "resource",
        "lat": 48.39408080615789,
        "lon": 134.14997293012553,
        "alt_km": 815.3855095311783,
        "timestamp": "2025-12-08T08:59:00.430153+00:00",
        "meta_object_name": "IONOSFERA-M 3",
        "meta_object_id": "2025-155A",
        "meta_epoch": "2025-12-07T22:14:02.802912",
        "meta_mean_motion": 14.21439076,
        "meta_eccentricity": 0.00023375,
        "meta_inclination": 98.5778,
        "meta_ra_of_asc_node": 303.9289,
        "meta_arg_of_pericenter": 67.5445,
        "meta_mean_anomaly": 292.598,
        "meta_ephemeris_type": 0,
        "meta_classification_type": "U",
        "meta_norad_cat_id": 64876,
        "meta_element_set_no": 999,
        "meta_rev_at_epoch": 1923,
        "meta_bstar": 8.810239e-05,
        "meta_mean_motion_dot": 1.5e-06,
        "meta_mean_motion_ddot": 0,
        "tle_line1": "1 64876U 25155A   25341.92642133  .00000150  00000+0  88102-4 0  9992",
        "tle_line2": "2 64876  98.5778 303.9289 0002337  67.5445 292.5980 14.21439076 19234"
      },
      "geometry": {
        "type": "Point",
        "coordinates": [
          134.14997293012553,
          48.39408080615789
        ]
      }
    },
    {
      "type": "Feature",
      "properties": {
        "norad_id": 64877,
        "name": "IONOSFERA-M 4",
        "group": "resource",
        "lat": -47.963224152422626,
        "lon": -46.07903971491491,
        "alt_km": 827.8057249599506,
        "timestamp": "2025-12-08T08:59:00.430164+00:00",
        "meta_object_name": "IONOSFERA-M 4",
        "meta_object_id": "2025-155B",
        "meta_epoch": "2025-12-07T21:23:11.036544",
        "meta_mean_motion": 14.2144013,
        "meta_eccentricity": 0.00016911,
        "meta_inclination": 98.5776,
        "meta_ra_of_asc_node": 303.8142,
        "meta_arg_of_pericenter": 68.3704,
        "meta_mean_anomaly": 291.7654,
        "meta_ephemeris_type": 0,
        "meta_classification_type": "U",
        "meta_norad_cat_id": 64877,
        "meta_element_set_no": 999,
        "meta_rev_at_epoch": 1922,
        "meta_bstar": 8.468134e-05,
        "meta_mean_motion_dot": 1.42e-06,
        "meta_mean_motion_ddot": 0,
        "tle_line1": "1 64877U 25155B   25341.89109996  .00000142  00000+0  84681-4 0  9993",
        "tle_line2": "2 64877  98.5776 303.8142 0001691  68.3704 291.7654 14.21440130 19220"
      },
      "geometry": {
        "type": "Point",
        "coordinates": [
          -46.07903971491491,
          -47.963224152422626
        ]
      }
    },
    {
      "type": "Feature",
      "properties": {
        "norad_id": 64899,
        "name": "MICROCARB",
        "group": "resource",
        "lat": 31.311246849999907,
        "lon": 52.88040962903016,
        "alt_km": 659.8223035477995,
        "timestamp": "2025-12-08T08:59:00.430175+00:00",
        "meta_object_name": "MICROCARB",
        "meta_object_id": "2025-156A",
        "meta_epoch": "2025-12-07T19:47:19.574304",
        "meta_mean_motion": 14.72045183,
        "meta_eccentricity": 0.00168241,
        "meta_inclination": 98.0028,
        "meta_ra_of_asc_node": 57.2486,
        "meta_arg_of_pericenter": 159.8799,
        "meta_mean_anomaly": 200.3075,
        "meta_ephemeris_type": 0,
        "meta_classification_type": "U",
        "meta_norad_cat_id": 64899,
        "meta_element_set_no": 999,
        "meta_rev_at_epoch": 1981,
        "meta_bstar": 0.00023240686,
        "meta_mean_motion_dot": 1.413e-05,
        "meta_mean_motion_ddot": 0,
        "tle_line1": "1 64899U 25156A   25341.82453211  .00001413  00000+0  23241-3 0  9999",
        "tle_line2": "2 64899  98.0028  57.2486 0016824 159.8799 200.3075 14.72045183 19817"
      },
      "geometry": {
        "type": "Point",
        "coordinates": [
          52.88040962903016,
          31.311246849999907
        ]
      }
    },
    {
      "type": "Feature",
      "properties": {
        "norad_id": 64900,
        "name": "CO3D 3",
        "group": "resource",
        "lat": 37.56063219261023,
        "lon": 53.04130592300483,
        "alt_km": 502.2517007004908,
        "timestamp": "2025-12-08T08:59:00.430186+00:00",
        "meta_object_name": "CO3D 3",
        "meta_object_id": "2025-156B",
        "meta_epoch": "2025-12-07T21:45:32.226336",
        "meta_mean_motion": 15.20205086,
        "meta_eccentricity": 0.00013103,
        "meta_inclination": 97.4343,
        "meta_ra_of_asc_node": 58.3434,
        "meta_arg_of_pericenter": 110.9185,
        "meta_mean_anomaly": 249.219,
        "meta_ephemeris_type": 0,
        "meta_classification_type": "U",
        "meta_norad_cat_id": 64900,
        "meta_element_set_no": 999,
        "meta_rev_at_epoch": 2047,
        "meta_bstar": 0.00036961345,
        "meta_mean_motion_dot": 7.943e-05,
        "meta_mean_motion_ddot": 0,
        "tle_line1": "1 64900U 25156B   25341.90662299  .00007943  00000+0  36961-3 0  9996",
        "tle_line2": "2 64900  97.4343  58.3434 0001310 110.9185 249.2190 15.20205086 20477"
      },
      "geometry": {
        "type": "Point",
        "coordinates": [
          53.04130592300483,
          37.56063219261023
        ]
      }
    },
    {
      "type": "Feature",
      "properties": {
        "norad_id": 64901,
        "name": "CO3D 4",
        "group": "resource",
        "lat": 36.75460299174811,
        "lon": 53.20809910621209,
        "alt_km": 503.402699422757,
        "timestamp": "2025-12-08T08:59:00.430197+00:00",
        "meta_object_name": "CO3D 4",
        "meta_object_id": "2025-156C",
        "meta_epoch": "2025-12-07T21:45:45.110304",
        "meta_mean_motion": 15.20208834,
        "meta_eccentricity": 0.00010895,
        "meta_inclination": 97.434,
        "meta_ra_of_asc_node": 58.3436,
        "meta_arg_of_pericenter": 223.8208,
        "meta_mean_anomaly": 136.2941,
        "meta_ephemeris_type": 0,
        "meta_classification_type": "U",
        "meta_norad_cat_id": 64901,
        "meta_element_set_no": 999,
        "meta_rev_at_epoch": 2047,
        "meta_bstar": 0.00041456242,
        "meta_mean_motion_dot": 8.919e-05,
        "meta_mean_motion_ddot": 0,
        "tle_line1": "1 64901U 25156C   25341.90677211  .00008919  00000+0  41456-3 0  9996",
        "tle_line2": "2 64901  97.4340  58.3436 0001089 223.8208 136.2941 15.20208834 20473"
      },
      "geometry": {
        "type": "Point",
        "coordinates": [
          53.20809910621209,
          36.75460299174811
        ]
      }
    }
  ]
}